[{"OBJECT_NAME":"ORBCOMM FM105","OBJECT_ID":"2015-081C","EPOCH":"2026-03-27T22:05:23.993376","MEAN_MOTION":14.45508562,"ECCENTRICITY":0.0001412,"INCLINATION":47.0023,"RA_OF_ASC_NODE":328.3464,"ARG_OF_PERICENTER":167.8142,"MEAN_ANOMALY":192.2773,"EPHEMERIS_TYPE":0,"CLASSIFICATION_TYPE":"U","NORAD_CAT_ID":41181,"ELEMENT_SET_NO":999,"REV_AT_EPOCH":54179,"BSTAR":0.00010511,"MEAN_MOTION_DOT":2.16e-6,"MEAN_MOTION_DDOT":0},{"OBJECT_NAME":"ORBCOMM FM110","OBJECT_ID":"2015-081D","EPOCH":"2026-03-28T20:03:00.273312","MEAN_MOTION":14.58768487,"ECCENTRICITY":0.00025,"INCLINATION":47.0037,"RA_OF_ASC_NODE":21.3358,"ARG_OF_PERICENTER":49.1746,"MEAN_ANOMALY":310.9357,"EPHEMERIS_TYPE":0,"CLASSIFICATION_TYPE":"U","NORAD_CAT_ID":41182,"ELEMENT_SET_NO":999,"REV_AT_EPOCH":54589,"BSTAR":0.00021902,"MEAN_MOTION_DOT":8.62e-6,"MEAN_MOTION_DDOT":0},{"OBJECT_NAME":"ORBCOMM FM118","OBJECT_ID":"2015-081E","EPOCH":"2026-03-28T04:26:36.018240","MEAN_MOTION":14.58763996,"ECCENTRICITY":0.00031497,"INCLINATION":47.0058,"RA_OF_ASC_NODE":24.7293,"ARG_OF_PERICENTER":6.1704,"MEAN_ANOMALY":353.922,"EPHEMERIS_TYPE":0,"CLASSIFICATION_TYPE":"U","NORAD_CAT_ID":41183,"ELEMENT_SET_NO":999,"REV_AT_EPOCH":54590,"BSTAR":0.00021716048,"MEAN_MOTION_DOT":8.53e-6,"MEAN_MOTION_DDOT":0},{"OBJECT_NAME":"ORBCOMM FM112","OBJECT_ID":"2015-081F","EPOCH":"2026-03-28T14:22:31.918656","MEAN_MOTION":14.58768718,"ECCENTRICITY":0.0002027,"INCLINATION":46.9988,"RA_OF_ASC_NODE":291.2659,"ARG_OF_PERICENTER":203.0648,"MEAN_ANOMALY":157.0147,"EPHEMERIS_TYPE":0,"CLASSIFICATION_TYPE":"U","NORAD_CAT_ID":41184,"ELEMENT_SET_NO":999,"REV_AT_EPOCH":54718,"BSTAR":0.00017637,"MEAN_MOTION_DOT":6.61e-6,"MEAN_MOTION_DDOT":0},{"OBJECT_NAME":"ORBCOMM FM113","OBJECT_ID":"2015-081G","EPOCH":"2026-03-28T20:24:17.539200","MEAN_MOTION":14.58762717,"ECCENTRICITY":0.0001756,"INCLINATION":47.0004,"RA_OF_ASC_NODE":290.4494,"ARG_OF_PERICENTER":214.6435,"MEAN_ANOMALY":145.4336,"EPHEMERIS_TYPE":0,"CLASSIFICATION_TYPE":"U","NORAD_CAT_ID":41185,"ELEMENT_SET_NO":999,"REV_AT_EPOCH":54720,"BSTAR":0.00015414,"MEAN_MOTION_DOT":5.56e-6,"MEAN_MOTION_DDOT":0},{"OBJECT_NAME":"ORBCOMM FM115","OBJECT_ID":"2015-081H","EPOCH":"2026-03-28T19:11:01.216032","MEAN_MOTION":14.63155885,"ECCENTRICITY":0.0001921,"INCLINATION":46.9973,"RA_OF_ASC_NODE":125.263,"ARG_OF_PERICENTER":282.5649,"MEAN_ANOMALY":77.5024,"EPHEMERIS_TYPE":0,"CLASSIFICATION_TYPE":"U","NORAD_CAT_ID":41186,"ELEMENT_SET_NO":999,"REV_AT_EPOCH":54944,"BSTAR":0.00014922,"MEAN_MOTION_DOT":5.98e-6,"MEAN_MOTION_DDOT":0},{"OBJECT_NAME":"ORBCOMM FM108","OBJECT_ID":"2015-081J","EPOCH":"2026-03-28T17:52:03.161856","MEAN_MOTION":14.58769882,"ECCENTRICITY":0.0003105,"INCLINATION":47.0047,"RA_OF_ASC_NODE":202.4964,"ARG_OF_PERICENTER":201.2019,"MEAN_ANOMALY":158.8739,"EPHEMERIS_TYPE":0,"CLASSIFICATION_TYPE":"U","NORAD_CAT_ID":41187,"ELEMENT_SET_NO":999,"REV_AT_EPOCH":54833,"BSTAR":0.00018185,"MEAN_MOTION_DOT":6.87e-6,"MEAN_MOTION_DDOT":0},{"OBJECT_NAME":"ORBCOMM FM117","OBJECT_ID":"2015-081K","EPOCH":"2026-03-28T17:02:11.409792","MEAN_MOTION":14.58766807,"ECCENTRICITY":0.0003585,"INCLINATION":47.0008,"RA_OF_ASC_NODE":201.3189,"ARG_OF_PERICENTER":205.3094,"MEAN_ANOMALY":154.7617,"EPHEMERIS_TYPE":0,"CLASSIFICATION_TYPE":"U","NORAD_CAT_ID":41188,"ELEMENT_SET_NO":999,"REV_AT_EPOCH":54837,"BSTAR":0.00021172,"MEAN_MOTION_DOT":8.28e-6,"MEAN_MOTION_DDOT":0},{"OBJECT_NAME":"ORBCOMM FM116","OBJECT_ID":"2015-081L","EPOCH":"2026-03-28T19:51:51.413760","MEAN_MOTION":14.58766208,"ECCENTRICITY":0.0001308,"INCLINATION":47.002,"RA_OF_ASC_NODE":290.5495,"ARG_OF_PERICENTER":45.4223,"MEAN_ANOMALY":314.6769,"EPHEMERIS_TYPE":0,"CLASSIFICATION_TYPE":"U","NORAD_CAT_ID":41189,"ELEMENT_SET_NO":999,"REV_AT_EPOCH":54720,"BSTAR":0.00017508,"MEAN_MOTION_DOT":6.55e-6,"MEAN_MOTION_DDOT":0}]
